OBJECT_NAME,OBJECT_ID,EPOCH,MEAN_MOTION,ECCENTRICITY,INCLINATION,RA_OF_ASC_NODE,ARG_OF_PERICENTER,MEAN_ANOMALY,EPHEMERIS_TYPE,CLASSIFICATION_TYPE,NORAD_CAT_ID,ELEMENT_SET_NO,REV_AT_EPOCH,BSTAR,MEAN_MOTION_DOT,MEAN_MOTION_DDOT
STARLINK-37955,2026-145Z,2026-07-07T18:00:02.998944,15.75238193,.0001152,97.2854,35.2910,98.0941,100.3062,0,U,69700,999,323,-.93325E-3,-.1374E-2,0
STRIX-8,2026-146A,2026-07-07T18:47:42.067392,15.04392357,.0008398,41.9897,54.1514,334.2972,25.7437,0,U,69701,999,166,.23951E-3,.3213E-4,0
STARLINK-38055,2026-147A,2026-07-07T18:00:02.998944,15.80869585,.0001334,97.2843,224.7053,93.8143,192.6587,0,U,69704,999,254,-.51839E-3,-.98567E-3,0
STARLINK-37898,2026-147B,2026-07-07T18:00:02.998944,15.80853877,.0001104,97.2841,224.7076,89.6544,201.5094,0,U,69705,999,254,-.36262E-3,-.69171E-3,0
STARLINK-37970,2026-147C,2026-07-07T18:00:02.998944,15.80856512,.0001564,97.2844,224.7096,96.5493,198.8863,0,U,69706,999,254,-.35891E-3,-.68482E-3,0
STARLINK-37975,2026-147D,2026-07-07T18:00:02.998944,15.80854650,.0001009,97.2843,224.7115,89.2142,210.4980,0,U,69707,999,254,-.40477E-3,-.77127E-3,0
STARLINK-37972,2026-147E,2026-07-07T18:00:02.998944,15.80854878,.0000763,97.2843,224.7132,103.1286,200.8587,0,U,69708,999,254,-.4474E-3,-.85155E-3,0
STARLINK-37963,2026-147F,2026-07-07T18:00:02.998944,15.80845183,.0001515,97.2841,224.7146,90.1551,218.1084,0,U,69709,999,254,-.29579E-3,-.5651E-3,0
STARLINK-37969,2026-147G,2026-07-07T18:00:02.998944,15.80850038,.0001543,97.2842,224.7166,104.0238,208.5111,0,U,69710,999,269,-.29034E-3,-.55491E-3,0
STARLINK-37956,2026-147H,2026-07-07T18:00:02.998944,15.80860208,.0001294,97.2843,224.7190,89.0487,227.7605,0,U,69711,999,254,-.46496E-3,-.88486E-3,0
STARLINK-38043,2026-147J,2026-07-07T18:00:02.998944,15.80881749,.0001572,97.2841,224.7193,99.6754,221.3681,0,U,69712,999,254,-.57177E-3,-.108642E-2,0
STARLINK-38020,2026-147K,2026-07-07T18:00:02.998944,15.80855253,.0001664,97.2841,224.7222,59.8871,265.4663,0,U,69713,999,254,-.38043E-3,-.72543E-3,0
STARLINK-38059,2026-147L,2026-07-07T18:00:02.998944,15.80863110,.0001514,97.2843,224.7245,95.5792,234.0470,0,U,69714,999,254,-.46942E-3,-.89339E-3,0
STARLINK-38061,2026-147M,2026-07-07T18:00:02.998944,15.80834373,.0001431,97.2842,224.7272,94.2850,239.6466,0,U,69715,999,263,.54112E-3,.10485E-2,0
STARLINK-38060,2026-147N,2026-07-07T18:00:02.998944,15.80862246,.0000959,97.2842,224.7277,115.1397,223.0351,0,U,69716,999,263,-.42008E-3,-.80039E-3,0
STARLINK-38040,2026-147P,2026-07-07T18:00:02.998944,15.80846756,.0001185,97.2840,224.7298,115.6192,226.8285,0,U,69717,999,263,-.27323E-3,-.52239E-3,0
STARLINK-37989,2026-147Q,2026-07-07T18:00:02.998944,15.80859180,.000111,97.2837,224.7306,116.7662,229.9584,0,U,69718,999,263,-.50826E-3,-.96617E-3,0
STARLINK-38039,2026-147R,2026-07-07T18:00:02.998944,15.80883486,.0000613,97.2839,224.7335,101.0117,249.9758,0,U,69719,999,263,-.62219E-3,-.118078E-2,0
STARLINK-38003,2026-147S,2026-07-07T18:00:02.998944,15.80857765,.0001024,97.2836,224.7339,99.1682,256.0990,0,U,69720,999,263,-.46978E-3,-.89379E-3,0
STARLINK-38014,2026-147T,2026-07-07T18:00:02.998944,15.80851811,.0001481,97.2838,224.7362,103.2206,256.3192,0,U,69721,999,263,-.40265E-3,-.76722E-3,0
STARLINK-37915,2026-147U,2026-07-07T18:00:02.998944,15.80877537,.0000967,97.2839,224.7380,107.4049,256.4011,0,U,69722,999,263,-.56934E-3,-.108157E-2,0
STARLINK-38007,2026-147V,2026-07-07T18:00:02.998944,15.80847980,.0001236,97.2837,224.7323,97.6646,252.5487,0,U,69723,999,263,-.28237E-3,-.53974E-3,0
STARLINK-38008,2026-147W,2026-07-07T18:00:02.998944,15.80858951,.0001477,97.2838,224.7424,90.5321,281.8323,0,U,69724,999,263,-.40533E-3,-.77252E-3,0
STARLINK-38021,2026-147X,2026-07-07T18:00:02.998944,15.80882395,.0000822,97.2839,224.7443,93.3414,283.2854,0,U,69725,999,263,-.53131E-3,-.101044E-2,0
STARLINK-38015,2026-147Y,2026-07-07T18:00:02.998944,15.80820960,.0001264,97.2841,224.7458,82.2196,298.6947,0,U,69726,999,263,-.12013E-3,-.23096E-3,0
STARLINK-38010,2026-147Z,2026-07-07T18:00:02.998944,15.81245909,.0001381,97.2838,224.7461,79.0731,306.0403,0,U,69727,999,263,-.79751E-2,-.1363439E-1,0
SXM-11,2026-148A,2026-07-07T07:37:50.345184,1.49075246,.3010005,5.0002,143.5985,179.9268,179.9611,0,U,69728,999,24,0,-.69E-6,0
HAIYANG-2E,2026-149A,2026-07-07T16:28:26.550624,13.79755745,.0005429,99.3473,195.7143,202.0099,158.0821,0,U,69737,999,79,-.55876E+0,-.549914E-2,0
