STARLINK-37955          
1 69700U 26145Z   26188.75003471 -.00137400  00000+0 -93325-3 0  9993
2 69700  97.2854  35.2910 0001152  98.0941 100.3062 15.75238193  3233
STRIX-8                 
1 69701U 26146A   26188.78312578  .00003213  00000+0  23951-3 0  9999
2 69701  41.9897  54.1514 0008398 334.2972  25.7437 15.04392357  1661
STARLINK-38055          
1 69704U 26147A   26188.75003471 -.00098567  00000+0 -51839-3 0  9993
2 69704  97.2843 224.7053 0001334  93.8143 192.6587 15.80869585  2547
STARLINK-37898          
1 69705U 26147B   26188.75003471 -.00069171  00000+0 -36262-3 0  9996
2 69705  97.2841 224.7076 0001104  89.6544 201.5094 15.80853877  2544
STARLINK-37970          
1 69706U 26147C   26188.75003471 -.00068482  00000+0 -35891-3 0  9998
2 69706  97.2844 224.7096 0001564  96.5493 198.8863 15.80856512  2541
STARLINK-37975          
1 69707U 26147D   26188.75003471 -.00077127  00000+0 -40477-3 0  9991
2 69707  97.2843 224.7115 0001009  89.2142 210.4980 15.80854650  2549
STARLINK-37972          
1 69708U 26147E   26188.75003471 -.00085155  00000+0 -44740-3 0  9999
2 69708  97.2843 224.7132 0000763 103.1286 200.8587 15.80854878  2548
STARLINK-37963          
1 69709U 26147F   26188.75003471 -.00056510  00000+0 -29579-3 0  9996
2 69709  97.2841 224.7146 0001515  90.1551 218.1084 15.80845183  2541
STARLINK-37969          
1 69710U 26147G   26188.75003471 -.00055491  00000+0 -29034-3 0  9991
2 69710  97.2842 224.7166 0001543 104.0238 208.5111 15.80850038  2699
STARLINK-37956          
1 69711U 26147H   26188.75003471 -.00088486  00000+0 -46496-3 0  9993
2 69711  97.2843 224.7190 0001294  89.0487 227.7605 15.80860208  2544
STARLINK-38043          
1 69712U 26147J   26188.75003471 -.00108642  00000+0 -57177-3 0  9999
2 69712  97.2841 224.7193 0001572  99.6754 221.3681 15.80881749  2546
STARLINK-38020          
1 69713U 26147K   26188.75003471 -.00072543  00000+0 -38043-3 0  9991
2 69713  97.2841 224.7222 0001664  59.8871 265.4663 15.80855253  2540
STARLINK-38059          
1 69714U 26147L   26188.75003471 -.00089339  00000+0 -46942-3 0  9990
2 69714  97.2843 224.7245 0001514  95.5792 234.0470 15.80863110  2540
STARLINK-38061          
1 69715U 26147M   26188.75003471  .00104850  00000+0  54112-3 0  9993
2 69715  97.2842 224.7272 0001431  94.2850 239.6466 15.80834373  2634
STARLINK-38060          
1 69716U 26147N   26188.75003471 -.00080039  00000+0 -42008-3 0  9999
2 69716  97.2842 224.7277 0000959 115.1397 223.0351 15.80862246  2633
STARLINK-38040          
1 69717U 26147P   26188.75003471 -.00052239  00000+0 -27323-3 0  9994
2 69717  97.2840 224.7298 0001185 115.6192 226.8285 15.80846756  2630
STARLINK-37989          
1 69718U 26147Q   26188.75003471 -.00096617  00000+0 -50826-3 0  9997
2 69718  97.2837 224.7306 0001110 116.7662 229.9584 15.80859180  2630
STARLINK-38039          
1 69719U 26147R   26188.75003471 -.00118078  00000+0 -62219-3 0  9993
2 69719  97.2839 224.7335 0000613 101.0117 249.9758 15.80883486  2635
STARLINK-38003          
1 69720U 26147S   26188.75003471 -.00089379  00000+0 -46978-3 0  9990
2 69720  97.2836 224.7339 0001024  99.1682 256.0990 15.80857765  2637
STARLINK-38014          
1 69721U 26147T   26188.75003471 -.00076722  00000+0 -40265-3 0  9992
2 69721  97.2838 224.7362 0001481 103.2206 256.3192 15.80851811  2635
STARLINK-37915          
1 69722U 26147U   26188.75003471 -.00108157  00000+0 -56934-3 0  9991
2 69722  97.2839 224.7380 0000967 107.4049 256.4011 15.80877537  2630
STARLINK-38007          
1 69723U 26147V   26188.75003471 -.00053974  00000+0 -28237-3 0  9993
2 69723  97.2837 224.7323 0001236  97.6646 252.5487 15.80847980  2632
STARLINK-38008          
1 69724U 26147W   26188.75003471 -.00077252  00000+0 -40533-3 0  9992
2 69724  97.2838 224.7424 0001477  90.5321 281.8323 15.80858951  2639
STARLINK-38021          
1 69725U 26147X   26188.75003471 -.00101044  00000+0 -53131-3 0  9998
2 69725  97.2839 224.7443 0000822  93.3414 283.2854 15.80882395  2633
STARLINK-38015          
1 69726U 26147Y   26188.75003471 -.00023096  00000+0 -12013-3 0  9993
2 69726  97.2841 224.7458 0001264  82.2196 298.6947 15.80820960  2631
STARLINK-38010          
1 69727U 26147Z   26188.75003471 -.01363439  00000+0 -79751-2 0  9994
2 69727  97.2838 224.7461 0001381  79.0731 306.0403 15.81245909  2637
SXM-11                  
1 69728U 26148A   26188.31794381 -.00000069  00000+0  00000+0 0  9998
2 69728   5.0002 143.5985 3010005 179.9268 179.9611  1.49075246   245
HAIYANG-2E              
1 69737U 26149A   26188.68641841 -.00549914  00000+0 -55876+0 0  9990
2 69737  99.3473 195.7143 0005429 202.0099 158.0821 13.79755745   795
